BEIDOU-2 IGSO-1 (C06)   
1 36828U 10036A   24220.80116346 -.00000120  00000+0  00000+0 0  9998
2 36828  54.2576 169.0992 0041433 206.6758 337.2252  1.00267638 51400
BEIDOU-2 G4 (C04)       
1 37210U 10057A   24220.77819581 -.00000112  00000+0  00000+0 0  9995
2 37210   1.9658  69.3831 0005323 152.8574 174.7282  1.00273627 50485
BEIDOU-2 IGSO-2 (C07)   
1 37256U 10068A   24220.58752785 -.00000178  00000+0  00000+0 0  9990
2 37256  48.7826 280.1936 0040247 215.7603 139.3812  1.00287656 49982
BEIDOU-2 IGSO-3 (C08)   
1 37384U 11013A   24220.46356701 -.00000157  00000+0  00000+0 0  9995
2 37384  61.4335  46.6147 0031509 173.2250   8.7181  1.00296318 48855
BEIDOU-2 IGSO-4 (C09)   
1 37763U 11038A   24219.80893873 -.00000058  00000+0  00000+0 0  9995
2 37763  54.5644 171.7352 0129057 229.7465 297.1956  1.00296601 47837
BEIDOU-2 IGSO-5 (C10)   
1 37948U 11073A   24220.62263414 -.00000158  00000+0  00000+0 0  9994
2 37948  48.9162 279.8845 0102726 220.9365 135.8370  1.00282566 46323
BEIDOU-2 G5 (C05)       
1 38091U 12008A   24220.82953914  .00000056  00000+0  00000+0 0  9992
2 38091   2.1982  71.1874 0003638 240.1668   2.7973  1.00275393 45568
BEIDOU-2 M3 (C11)       
1 38250U 12018A   24220.48053917 -.00000099  00000+0  00000+0 0  9994
2 38250  56.3026 327.6367 0022659 260.3769  99.3964  1.86231398 83656
BEIDOU-2 M4 (C12)       
1 38251U 12018B   24218.79966420 -.00000101  00000+0  00000+0 0  9992
2 38251  56.2100 326.9604 0013533 259.7931 100.0790  1.86232078 83270
BEIDOU-2 M6 (C14)       
1 38775U 12050B   24219.04624754 -.00000026  00000+0  00000+0 0  9995
2 38775  55.9513  85.4960 0012389 346.6232  13.4308  1.86231271 80649
BEIDOU-2 G6 (C02)       
1 38953U 12059A   24220.87827066 -.00000176  00000+0  00000+0 0  9992
2 38953   2.6876  80.1259 0007902 318.6879 318.2814  1.00272364 43104
BEIDOU-3S IGSO-1S (C31) 
1 40549U 15019A   24220.73181159 -.00000166  00000+0  00000+0 0  9995
2 40549  50.4759 303.5849 0036275 194.9681 175.7528  1.00294956 34274
BEIDOU-3S M2S (C58)     
1 40748U 15037A   24218.99942530 -.00000100  00000+0  00000+0 0  9997
2 40748  55.4403 325.3433 0010557 245.0672 114.8512  1.86233417 61456
BEIDOU-3S M1S (C57)     
1 40749U 15037B   24218.73418813 -.00000100  00000+0  00000+0 0  9992
2 40749  55.4432 325.3386 0002476 334.3690  25.6456  1.86227698 61459
BEIDOU-3S IGSO-2S (C56) 
1 40938U 15053A   24220.58128743 -.00000093  00000+0  00000+0 0  9997
2 40938  50.2774 266.8042 0053128 189.1945 163.3207  1.00294927 32545
BEIDOU-2 IGSO-6 (C13)   
1 41434U 16021A   24220.47897243 -.00000131  00000+0  00000+0 0  9994
2 41434  59.2532  44.8281 0048687 221.2381 316.8041  1.00262096 30678
BEIDOU-2 G7 (C03)       
1 41586U 16037A   24220.85882719 -.00000354  00000+0  00000+0 0  9990
2 41586   1.5018  65.0141 0007559 358.4059 313.1792  1.00272928    83
BEIDOU-3 M1 (C19)       
1 43001U 17069A   24220.42308016 -.00000028  00000+0  00000+0 0  9994
2 43001  56.1025  85.5534 0008493 312.3940  47.6203  1.86231687 45963
BEIDOU-3 M2 (C20)       
1 43002U 17069B   24220.36045121 -.00000028  00000+0  00000+0 0  9993
2 43002  56.1017  85.5914 0007176 342.7247  17.3372  1.86231140 45955
BEIDOU-3 M7 (C27)       
1 43107U 18003A   24218.49815099 -.00000102  00000+0  00000+0 0  9991
2 43107  54.8987 325.9296 0003765  86.5906 273.4776  1.86232654 44673
BEIDOU-3 M8 (C28)       
1 43108U 18003B   24220.58681906 -.00000099  00000+0  00000+0 0  9998
2 43108  54.8903 325.8429 0003782 246.4012 113.5910  1.86231106 44724
BEIDOU-3 M4 (C22)       
1 43207U 18018A   24220.49117554 -.00000028  00000+0  00000+0 0  9999
2 43207  56.0613  85.6384 0005981  17.2606 342.8459  1.86231612 44102
BEIDOU-3 M3 (C21)       
1 43208U 18018B   24220.55779686 -.00000029  00000+0  00000+0 0  9998
2 43208  56.0608  85.6406 0006694 330.0684  29.9794  1.86231505 44102
BEIDOU-3 M9 (C29)       
1 43245U 18029A   24220.77848384 -.00000097  00000+0  00000+0 0  9992
2 43245  54.7788 323.5538 0001303 204.7566 155.2728  1.86232974 43262
BEIDOU-3 M10 (C30)      
1 43246U 18029B   24220.17113090 -.00000097  00000+0  00000+0 0  9996
2 43246  54.7766 323.6026 0002647  10.8557 349.1842  1.86233120 43232
BEIDOU-2 IGSO-7 (C16)   
1 43539U 18057A   24220.80223862 -.00000123  00000+0  00000+0 0  9991
2 43539  55.1514 168.9397 0078947 234.4077 312.6734  1.00296444 22338
BEIDOU-3 M5 (C23)       
1 43581U 18062A   24219.32085891  .00000028  00000+0  00000+0 0  9990
2 43581  54.1302 205.4263 0005542 280.6447  79.2688  1.86228896 40977
BEIDOU-3 M6 (C24)       
1 43582U 18062B   24218.64953181  .00000024  00000+0  00000+0 0  9997
2 43582  54.1300 205.4386 0004778 356.7765   3.1974  1.86229848 40961
BEIDOU-3 M12 (C26)      
1 43602U 18067A   24218.58236429  .00000023  00000+0  00000+0 0  9996
2 43602  54.2209 204.1268 0006978  17.8906 342.1089  1.86231603 40442
BEIDOU-3 M11 (C25)      
1 43603U 18067B   24218.17938254  .00000021  00000+0  00000+0 0  9995
2 43603  54.2180 204.1054 0003937 359.6071   0.3686  1.86231552 40467
BEIDOU-3 M13 (C32)      
1 43622U 18072A   24220.28884311 -.00000028  00000+0  00000+0 0  9999
2 43622  56.0325  85.1748 0005213 313.9899  46.0534  1.86231639 40012
BEIDOU-3 M14 (C33)      
1 43623U 18072B   24220.15430078 -.00000028  00000+0  00000+0 0  9993
2 43623  56.0342  85.1725 0004156 355.9680   4.1151  1.86231655 40003
BEIDOU-3 M16 (C35)      
1 43647U 18078A   24219.24275413 -.00000099  00000+0  00000+0 0  9991
2 43647  54.6763 323.7013 0006087  20.8088 339.2471  1.86232342 39498
BEIDOU-3 M15 (C34)      
1 43648U 18078B   24219.37190281 -.00000098  00000+0  00000+0 0  9994
2 43648  54.6721 323.6995 0002981  37.0151 323.0371  1.86232460 39526
BEIDOU-3 G1 (C59)       
1 43683U 18085A   24220.84572535 -.00000278  00000+0  00000+0 0  9991
2 43683   2.3152 107.6760 0003012   7.0005 286.6303  1.00276384 21253
BEIDOU-3 M17 (C36)      
1 43706U 18093A   24218.98580545  .00000026  00000+0  00000+0 0  9998
2 43706  54.2131 205.3797 0010372 282.7153  77.1450  1.86228537 38874
BEIDOU-3 M18 (C37)      
1 43707U 18093B   24220.46160455  .00000040  00000+0  00000+0 0  9995
2 43707  54.2138 205.3214 0008388 307.7210  52.1787  1.86230077 38892
BEIDOU-3 IGSO-1 (C38)   
1 44204U 19023A   24220.51293461 -.00000198  00000+0  00000+0 0  9997
2 44204  57.7195  44.6854 0023140 205.0407  10.5331  1.00286543   405
BEIDOU-2 G8 (C01)       
1 44231U 19027A   24220.84659559 -.00000248  00000+0  00000+0 0  9997
2 44231   1.6002  74.1429 0002015 176.3248 155.7026  1.00271849 19278
BEIDOU-3 IGSO-2 (C39)   
1 44337U 19035A   24220.80173170 -.00000133  00000+0  00000+0 0  9992
2 44337  55.1839 164.8174 0034997 204.6169 354.8792  1.00281561 18860
BEIDOU-3 M24 (C46)      
1 44542U 19061A   24219.99428687  .00000035  00000+0  00000+0 0  9993
2 44542  54.4408 205.6421 0008200 343.7378  16.2119  1.86229420 33146
BEIDOU-3 M23 (C45)      
1 44543U 19061B   24219.83216207  .00000034  00000+0  00000+0 0  9999
2 44543  54.4390 205.6162 0005787 324.6543 199.1287  1.86229696 33140
BEIDOU-3 IGSO-3 (C40)   
1 44709U 19073A   24220.59128616 -.00000169  00000+0  00000+0 0  9997
2 44709  55.9606 288.1841 0041210 189.3017 170.7378  1.00287116 17654
BEIDOU-3 M22 (C44)      
1 44793U 19078A   24219.30295458 -.00000099  00000+0  00000+0 0  9993
2 44793  54.5242 323.6252 0004909  30.0280 330.0316  1.86232347 31982
BEIDOU-3 M21 (C43)      
1 44794U 19078B   24219.96957040 -.00000098  00000+0  00000+0 0  9997
2 44794  54.4972 323.5771 0002770  24.6386 335.4083  1.86232797 32000
BEIDOU-3 M19 (C41)      
1 44864U 19090A   24220.55138755 -.00000029  00000+0  00000+0 0  9994
2 44864  55.9669  85.3344 0016053 284.1981 298.5556  1.86231975 31593
BEIDOU-3 M20 (C42)      
1 44865U 19090B   24220.21937278 -.00000028  00000+0  00000+0 0  9994
2 44865  55.9686  85.3789 0013985 299.3050 150.5651  1.86231876 31573
BEIDOU-3 G2 (C60)       
1 45344U 20017A   24220.87827066 -.00000141  00000+0  00000+0 0  9999
2 45344   2.3796  31.5329 0002413 153.8045 167.7503  1.00272131 16450
BEIDOU-3 G3 (C61)       
1 45807U 20040A   24220.85882719 -.00000353  00000+0  00000+0 0  9998
2 45807   0.8668  48.0746 0003662   4.3665 324.0906  1.00267320 15285
BEIDOU-3 G4             
1 56564U 23066A   24220.77819581 -.00000111  00000+0  00000+0 0  9991
2 56564   1.9972 288.2642 0006078 216.0719 252.6071  1.00272588  4599
BEIDOU-3 M25            
1 58654U 23207A   24220.05245646 -.00000030  00000+0  00000+0 0  9996
2 58654  55.1504  85.3316 0001157 326.5671  33.5113  1.86232414  4191
BEIDOU-3 M26            
1 58655U 23207B   24219.31456439 -.00000028  00000+0  00000+0 0  9995
2 58655  55.1517  85.3421 0001643 266.6697  93.3975  1.86232055  4163
